*******************************************************************************
Ephemeris / WWW_USER Mon Jul 15 19:15:14 2024 Pasadena, USA      / Horizons    
*******************************************************************************
Target body name: (2018 WV1)                      {source: JPL#17}
Center body name: Earth (399)                     {source: DE441}
Center-site name: Gemini South Obs., Cerro Pachon
*******************************************************************************
Start time      : A.D. 2018-Dec-21 23:53:00.0000 UT      
Stop  time      : A.D. 2018-Dec-22 09:29:00.0000 UT      
Step-size       : 1 minutes
*******************************************************************************
Target pole/equ : undefined
Target radii    : undefined                                                    
Center geodetic : 289.2634, -30.2406227, 2.71233  {E-lon(deg),Lat(deg),Alt(km)}
Center cylindric: 289.2634,5517.21435,-3194.81213 {E-lon(deg),Dxy(km),Dz(km)}
Center pole/equ : ITRF93                          {East-longitude positive}
Center radii    : 6378.137, 6378.137, 6356.752 km {Equator_a, b, pole_c}       
Target primary  : Sun
Vis. interferer : MOON (R_eq= 1737.400) km        {source: DE441}
Rel. light bend : Sun                             {source: DE441}
Rel. lght bnd GM: 1.3271E+11 km^3/s^2                                          
Small-body perts: Yes                             {source: SB441-N16}
Atmos refraction: NO (AIRLESS)
RA format       : HMS
Time format     : CAL 
Calendar mode   : Mixed Julian/Gregorian
RTS-only print  : NO       
EOP file        : eop.240715.p241008                                           
EOP coverage    : DATA-BASED 1962-JAN-20 TO 2024-JUL-15. PREDICTS-> 2024-OCT-07
Units conversion: 1 au= 149597870.700 km, c= 299792.458 km/s, 1 day= 86400.0 s 
Table cut-offs 1: Elevation (-90.0deg=NO ),Airmass (>38.000=NO), Daylight (YES)
Table cut-offs 2: Solar elongation (  0.0,180.0=NO ),Local Hour Angle( 0.0=NO )
Table cut-offs 3: RA/DEC angular rate (     0.0=NO )                           
*******************************************************************************
Initial IAU76/J2000 heliocentric ecliptic osculating elements (au, days, deg.):
  EPOCH=  2458458.5 ! 2018-Dec-06.00 (TDB)         Residual RMS= .12928        
   EC= .06869100257422787  QR= .9715505345748198   TP= 2458416.866413563       
   OM= 248.5061090469913   W=  141.3742304527303   IN= 1.905403987972275       
  Equivalent ICRF heliocentric cartesian coordinates (au, au/d):
   X= 2.787163119783287E-01  Y= 8.719775267121872E-01  Z= 3.748421051204766E-01
  VX=-1.676682657337402E-02 VY= 5.516972965834891E-03 VZ= 1.749720915605096E-03
Asteroid physical parameters (km, seconds, rotational period in hours):        
   GM= n.a.                RAD= n.a.               ROTPER= n.a.                
   H= 30.3                 G= .150                 B-V= n.a.                   
                           ALBEDO= n.a.            STYP= n.a.                  
*******************************************************************************
 Date__(UT)__HR:MN     R.A._________(ICRF)_________DEC
******************************************************
$$SOE
 2018-Dec-22 01:56  m  05 59 47.786261 -07 29 24.04445
 2018-Dec-22 01:57  m  05 59 47.696015 -07 29 23.68910
 2018-Dec-22 01:58  m  05 59 47.605481 -07 29 23.33308
 2018-Dec-22 01:59  m  05 59 47.514660 -07 29 22.97641
 2018-Dec-22 02:00  m  05 59 47.423554 -07 29 22.61906
 2018-Dec-22 02:01  m  05 59 47.332165 -07 29 22.26105
 2018-Dec-22 02:02  m  05 59 47.240494 -07 29 21.90237
 2018-Dec-22 02:03  m  05 59 47.148542 -07 29 21.54302
 2018-Dec-22 02:04  m  05 59 47.056311 -07 29 21.18299
 2018-Dec-22 02:05  m  05 59 46.963803 -07 29 20.82228
 2018-Dec-22 02:06  m  05 59 46.871019 -07 29 20.46089
 2018-Dec-22 02:07  m  05 59 46.777961 -07 29 20.09882
 2018-Dec-22 02:08  m  05 59 46.684630 -07 29 19.73607
 2018-Dec-22 02:09  m  05 59 46.591027 -07 29 19.37263
 2018-Dec-22 02:10  m  05 59 46.497155 -07 29 19.00850
 2018-Dec-22 02:11  m  05 59 46.403015 -07 29 18.64367
 2018-Dec-22 02:12  m  05 59 46.308609 -07 29 18.27816
 2018-Dec-22 02:13  m  05 59 46.213937 -07 29 17.91195
 2018-Dec-22 02:14  m  05 59 46.119002 -07 29 17.54504
 2018-Dec-22 02:15  m  05 59 46.023806 -07 29 17.17742
 2018-Dec-22 02:16  m  05 59 45.928349 -07 29 16.80911
 2018-Dec-22 02:17  m  05 59 45.832634 -07 29 16.44009
 2018-Dec-22 02:18  m  05 59 45.736661 -07 29 16.07036
 2018-Dec-22 02:19  m  05 59 45.640434 -07 29 15.69993
 2018-Dec-22 02:20  m  05 59 45.543952 -07 29 15.32878
 2018-Dec-22 02:21  m  05 59 45.447219 -07 29 14.95692
 2018-Dec-22 02:22  m  05 59 45.350235 -07 29 14.58434
 2018-Dec-22 02:23  m  05 59 45.253002 -07 29 14.21104
 2018-Dec-22 02:24  m  05 59 45.155522 -07 29 13.83703
 2018-Dec-22 02:25  m  05 59 45.057797 -07 29 13.46229
 2018-Dec-22 02:26  m  05 59 44.959827 -07 29 13.08683
 2018-Dec-22 02:27  m  05 59 44.861615 -07 29 12.71064
 2018-Dec-22 02:28  m  05 59 44.763163 -07 29 12.33372
 2018-Dec-22 02:29  m  05 59 44.664472 -07 29 11.95607
 2018-Dec-22 02:30  m  05 59 44.565543 -07 29 11.57769
 2018-Dec-22 02:31  m  05 59 44.466379 -07 29 11.19858
 2018-Dec-22 02:32  m  05 59 44.366980 -07 29 10.81873
 2018-Dec-22 02:33  m  05 59 44.267350 -07 29 10.43814
 2018-Dec-22 02:34  m  05 59 44.167488 -07 29 10.05681
 2018-Dec-22 02:35  m  05 59 44.067398 -07 29 09.67473
 2018-Dec-22 02:36  m  05 59 43.967081 -07 29 09.29191
 2018-Dec-22 02:37  m  05 59 43.866538 -07 29 08.90835
 2018-Dec-22 02:38  m  05 59 43.765771 -07 29 08.52404
 2018-Dec-22 02:39  m  05 59 43.664782 -07 29 08.13897
 2018-Dec-22 02:40  m  05 59 43.563573 -07 29 07.75316
 2018-Dec-22 02:41  m  05 59 43.462145 -07 29 07.36659
 2018-Dec-22 02:42  m  05 59 43.360500 -07 29 06.97927
 2018-Dec-22 02:43  m  05 59 43.258639 -07 29 06.59118
 2018-Dec-22 02:44  m  05 59 43.156565 -07 29 06.20234
 2018-Dec-22 02:45  m  05 59 43.054279 -07 29 05.81274
 2018-Dec-22 02:46  m  05 59 42.951783 -07 29 05.42237
 2018-Dec-22 02:47  m  05 59 42.849079 -07 29 05.03124
 2018-Dec-22 02:48  m  05 59 42.746168 -07 29 04.63935
 2018-Dec-22 02:49  m  05 59 42.643052 -07 29 04.24668
 2018-Dec-22 02:50  m  05 59 42.539733 -07 29 03.85324
 2018-Dec-22 02:51  m  05 59 42.436212 -07 29 03.45904
 2018-Dec-22 02:52  m  05 59 42.332492 -07 29 03.06405
 2018-Dec-22 02:53  m  05 59 42.228574 -07 29 02.66830
 2018-Dec-22 02:54  m  05 59 42.124460 -07 29 02.27176
 2018-Dec-22 02:55  m  05 59 42.020152 -07 29 01.87445
 2018-Dec-22 02:56  m  05 59 41.915650 -07 29 01.47636
 2018-Dec-22 02:57  m  05 59 41.810958 -07 29 01.07749
 2018-Dec-22 02:58  m  05 59 41.706077 -07 29 00.67783
 2018-Dec-22 02:59  m  05 59 41.601009 -07 29 00.27739
 2018-Dec-22 03:00  m  05 59 41.495755 -07 28 59.87616
 2018-Dec-22 03:01  m  05 59 41.390318 -07 28 59.47414
 2018-Dec-22 03:02  m  05 59 41.284698 -07 28 59.07133
 2018-Dec-22 03:03  m  05 59 41.178899 -07 28 58.66773
 2018-Dec-22 03:04  m  05 59 41.072921 -07 28 58.26334
 2018-Dec-22 03:05  m  05 59 40.966767 -07 28 57.85816
 2018-Dec-22 03:06  m  05 59 40.860438 -07 28 57.45218
 2018-Dec-22 03:07  m  05 59 40.753936 -07 28 57.04540
 2018-Dec-22 03:08  m  05 59 40.647263 -07 28 56.63782
 2018-Dec-22 03:09  m  05 59 40.540420 -07 28 56.22944
 2018-Dec-22 03:10  m  05 59 40.433411 -07 28 55.82026
 2018-Dec-22 03:11  m  05 59 40.326235 -07 28 55.41028
 2018-Dec-22 03:12  m  05 59 40.218896 -07 28 54.99949
 2018-Dec-22 03:13  m  05 59 40.111395 -07 28 54.58790
 2018-Dec-22 03:14  m  05 59 40.003733 -07 28 54.17550
 2018-Dec-22 03:15  m  05 59 39.895913 -07 28 53.76229
 2018-Dec-22 03:16  m  05 59 39.787937 -07 28 53.34827
 2018-Dec-22 03:17  m  05 59 39.679806 -07 28 52.93344
 2018-Dec-22 03:18  m  05 59 39.571523 -07 28 52.51780
 2018-Dec-22 03:19  m  05 59 39.463088 -07 28 52.10135
 2018-Dec-22 03:20  m  05 59 39.354504 -07 28 51.68408
 2018-Dec-22 03:21  m  05 59 39.245773 -07 28 51.26599
 2018-Dec-22 03:22  m  05 59 39.136896 -07 28 50.84708
 2018-Dec-22 03:23  m  05 59 39.027876 -07 28 50.42736
 2018-Dec-22 03:24  m  05 59 38.918715 -07 28 50.00682
 2018-Dec-22 03:25  m  05 59 38.809413 -07 28 49.58545
 2018-Dec-22 03:26  m  05 59 38.699973 -07 28 49.16326
 2018-Dec-22 03:27  m  05 59 38.590398 -07 28 48.74025
 2018-Dec-22 03:28  m  05 59 38.480688 -07 28 48.31642
 2018-Dec-22 03:29  m  05 59 38.370845 -07 28 47.89176
 2018-Dec-22 03:30  m  05 59 38.260872 -07 28 47.46627
 2018-Dec-22 03:31  m  05 59 38.150771 -07 28 47.03995
 2018-Dec-22 03:32  m  05 59 38.040543 -07 28 46.61281
 2018-Dec-22 03:33  m  05 59 37.930190 -07 28 46.18483
 2018-Dec-22 03:34  m  05 59 37.819713 -07 28 45.75602
 2018-Dec-22 03:35  m  05 59 37.709116 -07 28 45.32638
 2018-Dec-22 03:36  m  05 59 37.598400 -07 28 44.89591
 2018-Dec-22 03:37  m  05 59 37.487566 -07 28 44.46461
 2018-Dec-22 03:38  m  05 59 37.376617 -07 28 44.03246
 2018-Dec-22 03:39  m  05 59 37.265554 -07 28 43.59949
 2018-Dec-22 03:40  m  05 59 37.154380 -07 28 43.16567
 2018-Dec-22 03:41  m  05 59 37.043096 -07 28 42.73102
 2018-Dec-22 03:42  m  05 59 36.931704 -07 28 42.29552
 2018-Dec-22 03:43  m  05 59 36.820206 -07 28 41.85919
 2018-Dec-22 03:44  m  05 59 36.708604 -07 28 41.42202
 2018-Dec-22 03:45  m  05 59 36.596900 -07 28 40.98400
 2018-Dec-22 03:46  m  05 59 36.485096 -07 28 40.54515
 2018-Dec-22 03:47  m  05 59 36.373193 -07 28 40.10545
 2018-Dec-22 03:48  m  05 59 36.261194 -07 28 39.66490
 2018-Dec-22 03:49  m  05 59 36.149101 -07 28 39.22351
 2018-Dec-22 03:50  m  05 59 36.036915 -07 28 38.78128
 2018-Dec-22 03:51  m  05 59 35.924638 -07 28 38.33819
 2018-Dec-22 03:52  m  05 59 35.812273 -07 28 37.89426
 2018-Dec-22 03:53  m  05 59 35.699820 -07 28 37.44949
 2018-Dec-22 03:54  m  05 59 35.587283 -07 28 37.00386
 2018-Dec-22 03:55  m  05 59 35.474663 -07 28 36.55738
 2018-Dec-22 03:56  m  05 59 35.361962 -07 28 36.11006
 2018-Dec-22 03:57  m  05 59 35.249182 -07 28 35.66188
 2018-Dec-22 03:58  m  05 59 35.136324 -07 28 35.21285
